#aV2008 12  8  0  0   .00000000      96 DD+AD WGS84 FIT  NGA
## 1509  86400.00000000   900.00000000 54808  .0000000000000
+   31     2  3  4  5  6  7  8  9 10 11 12 13 14 15 16 17 18
+         19 20 21 22 23 24 25 26 27 28 29 30 31 32  0  0  0
+          0  0  0  0  0  0  0  0  0  0  0  0  0  0  0  0  0
+          0  0  0  0  0  0  0  0  0  0  0  0  0  0  0  0  0
+          0  0  0  0  0  0  0  0  0  0  0  0  0  0  0  0  0
++         0  0  0  0  0  0  0  0  0  0  0  0  0  0  0  0  0
++         0  0  0  0  0  0  0  0  0  0  0  0  0  0  0  0  0
++         0  0  0  0  0  0  0  0  0  0  0  0  0  0  0  0  0
++         0  0  0  0  0  0  0  0  0  0  0  0  0  0  0  0  0
++         0  0  0  0  0  0  0  0  0  0  0  0  0  0  0  0  0
%c cc cc ccc ccc cccc cccc cccc cccc ccccc ccccc ccccc ccccc
%c cc cc ccc ccc cccc cccc cccc cccc ccccc ccccc ccccc ccccc
%f  0.0000000  0.000000000  0.00000000000  0.000000000000000
%f  0.0000000  0.000000000  0.00000000000  0.000000000000000
%i    0    0    0    0      0      0      0      0         0
%i    0    0    0    0      0      0      0      0         0
/*      NGA, ST. LOUIS,MO.                                  
/*   EPHEMERIS COMPUTED FROM  3 DAYS OF DATA                
/* CCCCCCCCCCCCCCCCCCCCCCCCCCCCCCCCCCCCCCCCCCCCCCCCCCCCCCCCC
/* CCCCCCCCCCCCCCCCCCCCCCCCCCCCCCCCCCCCCCCCCCCCCCCCCCCCCCCCC
*  2008 12  8  8 45   .00000000                                                 
P  2  -1922.251007  15583.203761  21315.772449    168.329415                    
V  2 -26334.007777  -7620.791247   2797.662344      -.023048                    
P  3   6251.675844 -22262.972610 -13044.192779    321.827264                    
V  3  13142.654212 -10213.531488  24637.979774       .052586                    
P  4 -17370.576679   8450.530777  18261.963681   -257.665733                    
V  4 -21793.817610  -8585.543544 -16276.851993      -.126273                    
P  5  15096.065278  18208.308482  11909.698315   -392.941296                    
V  5   2263.088472  15652.456465 -26030.302822       .131145                    
P  6  11629.536944 -21817.551876  -9501.305104    126.961942                    
V  6  11084.242012  -6454.830440  27864.590764      -.091090                    
P  7 -25714.974365  -6663.665600  -1738.791023     23.504883                    
V  7  -1320.575757  -3103.727480  31682.845920       .000274                    
P  8 -22794.519902   1433.630085 -14036.407154   -181.242205                    
V  8 -15964.695941  -7204.175682  24819.617738      -.015800                    
P  9  17560.006251  14711.632461 -14178.471264     28.637898                    
V  9 -16685.516723  -2863.870969 -24658.065815       .017773                    
P 10    628.272642  25551.548389   6402.514811     -8.080147                    
V 10  -4603.541938  -7630.219127  30554.471313      -.003648                    
P 11 -19980.617901 -12387.283847 -12865.999977     13.781840                    
V 11  16394.819780  -2066.500349 -23465.773539      -.008807                    
P 12  11777.787483  21847.126500   9667.533079   -335.382435                    
V 12    417.833424  12343.596814 -28522.069410       .027399                    
P 13 -18308.100824   -862.483941  19105.245554    280.267757                    
V 13  18161.495485 -16357.731047  16570.847350       .014375                    
P 14  20868.874250 -16163.377437  -2219.735060   -184.649511                    
V 14   -919.022530   3468.783312 -32274.150652       .049344                    
P 15   1714.410092  17609.487433 -19766.392071   -223.316168                    
V 15 -19087.495059  16489.070339  13047.259386      -.060335                    
P 16   3874.690972 -23126.598618  12322.837096     90.363054                    
V 16   5435.968821  14828.918392  26454.237233      -.025125                    
P 17 -21452.642741  14664.527717  -4956.269128     41.684878                    
V 17   2759.960861  -6471.256710 -30997.208795       .006563                    
P 18  15990.730649   3772.500168 -20723.221394   -105.189910                    
V 18   4437.226929  26420.042759   7791.387754       .037687                    
P 19  -2293.660503 -16648.881319 -20452.794063     35.084359                    
V 19  21082.626470 -15561.048591  10485.820504      -.003284                    
P 20 -13707.343891 -19374.126349  11853.854013     96.977033                    
V 20  -1023.102615 -15467.739738 -26158.974546      -.010522                    
P 21  25840.748980   3777.347162  -6166.658704     39.300392                    
V 21   6656.167199   5361.780263  29481.251802      -.016469                    
P 22  13082.667580 -10544.502248 -20395.819505    208.348437                    
V 22   5938.645525  25685.695014  -9452.674874      -.005458                    
P 23 -12474.854241  -8728.566654  21736.888509    382.149459                    
V 23  20223.374188 -18867.699125   3758.745083       .009722                    
P 24  21670.014246  13358.327705   7204.006811    147.460787                    
V 24  -9563.499937   -157.305321  29919.758654       .032568                    
P 25 -23999.323385  -9419.790440   6331.011478     84.163780                    
V 25   7975.618440   -989.145962  30659.787055       .291242                    
P 26  -4569.133554  19175.751230 -18032.642808     23.977385                    
V 26 -17671.156196  13217.097216  19581.313237       .040759                    
P 27 -25181.113152   -552.019807  -7978.053040      6.233496                    
V 27 -10130.183189  -4872.693530  29717.165350       .031682                    
P 28 -13273.996939   8092.204868 -21084.981765    -23.730106                    
V 28  -6160.584391 -27085.091350  -6722.012240      -.000496                    
P 29  18041.326955   2229.023300  19455.856326    -26.041890                    
V 29 -17473.916324  17222.323502  14339.535426       .021029                    
P 30  16183.107571  10248.541025  18074.184562    112.396589                    
V 30   4559.002768  23309.532548 -16881.586217       .022391                    
P 31  14317.159379 -10090.446432  20210.044956    -42.500736                    
V 31  23778.546704   8193.370819 -12778.885421      -.018092                    
P 32  -8146.068550 -24613.045988   6700.794389    310.819048                    
V 32   1137.456702  -8140.622375 -30230.611213      -.018077                    
EOF
